NORAD_CAT_ID,OBJECT_NAME,OBJECT_TYPE,EPOCH,MEAN_MOTION,ECCENTRICITY,INCLINATION,RA_OF_ASC_NODE,ARG_OF_PERICENTER,MEAN_ANOMALY,BSTAR,MEAN_MOTION_DOT,MEAN_MOTION_DDOT,TLE_LINE0,TLE_LINE1,TLE_LINE2,SEMIMAJOR_AXIS,PERIOD,APOGEE,PERIGEE,DECAYED
56818.0,STARLINK-6028,PAYLOAD,2023-09-01 17:00:39,15.69931562,0.0002645,69.9988,150.5828,272.1621,87.9272,2.1705e-05,2.399e-05,0.0,0 STARLINK-6028,1 56818U 23078BD  23244.70879383  .00002399  00000-0  21705-4 0  9990,2 56818  69.9988 150.5828 0002645 272.1621  87.9272 15.69931562 14979,6737.23,91.724,360.877,357.313,0.0
56818.0,STARLINK-6028,PAYLOAD,2023-09-02 03:42:56,15.6989404,0.0003782,69.9962,149.3294,271.0042,89.072,-5.1381e-05,-6.379e-05,0.0,0 STARLINK-6028,1 56818U 23078BD  23245.15482463 -.00006379  00000-0 -51381-4 0  9996,2 56818  69.9962 149.3294 0003782 271.0042  89.0720 15.69894040 15041,6737.337,91.726,361.75,356.654,0.0
56818.0,STARLINK-6028,PAYLOAD,2023-09-02 11:21:43,15.69883723,0.0003458,69.9981,148.4328,258.4464,101.6343,-6.0024e-05,-7.412e-05,0.0,0 STARLINK-6028,1 56818U 23078BD  23245.47341975 -.00007412  00000-0 -60024-4 0  9996,2 56818  69.9981 148.4328 0003458 258.4464 101.6343 15.69883723 15528,6737.367,91.727,361.561,356.902,0.0
56818.0,STARLINK-6028,PAYLOAD,2023-09-02 20:32:12,15.699292,0.000304,69.9968,147.3595,262.4579,97.6272,3.5904e-05,4.107e-05,0.0,0 STARLINK-6028,1 56818U 23078BD  23245.85570254  .00004107  00000-0  35904-4 0  9997,2 56818  69.9968 147.3595 0003040 262.4579  97.6272 15.69929200 15588,6737.237,91.724,361.15,357.053,0.0
56818.0,STARLINK-6028,PAYLOAD,2023-09-03 01:07:27,15.69949656,0.0003006,69.9971,146.8197,260.2202,99.8654,6.9288e-05,8.135e-05,0.0,0 STARLINK-6028,1 56818U 23078BD  23246.04684139  .00008135  00000-0  69288-4 0  9994,2 56818  69.9971 146.8197 0003006 260.2202  99.8654 15.69949656 15186,6737.178,91.723,361.068,357.018,0.0
56818.0,STARLINK-6028,PAYLOAD,2023-09-03 04:10:56,15.69959147,0.0003104,69.9983,146.462,263.9606,96.1236,8.5952e-05,0.00010149,0.0,0 STARLINK-6028,1 56818U 23078BD  23246.17426885  .00010149  00000-0  85952-4 0  9994,2 56818  69.9983 146.4620 0003104 263.9606  96.1236 15.69959147 15635,6737.151,91.722,361.107,356.925,0.0
56818.0,STARLINK-6028,PAYLOAD,2023-09-04 00:03:44,15.69931108,0.0004113,69.9986,144.134,264.5913,95.4814,1.9035e-05,2.077e-05,0.0,0 STARLINK-6028,1 56818U 23078BD  23247.00259675  .00002077  00000-0  19035-4 0  9998,2 56818  69.9986 144.1340 0004113 264.5913  95.4814 15.69931108 15339,6737.231,91.724,361.867,356.325,0.0
56818.0,STARLINK-6028,PAYLOAD,2023-09-04 12:17:53,15.69764428,0.0002239,69.9991,142.7009,262.2057,97.8885,-0.00021298,-0.0002557,0.0,0 STARLINK-6028,1 56818U 23078BD  23247.51241952 -.00025570  00000-0 -21298-3 0  9991,2 56818  69.9991 142.7009 0002239 262.2057  97.8885 15.69764428 15841,6737.708,91.734,361.082,358.064,0.0
56818.0,STARLINK-6028,PAYLOAD,2023-09-04 16:53:14,15.69654714,0.0002391,69.9972,142.1621,241.3078,118.7878,-0.00050865,-0.00060252,0.0,0 STARLINK-6028,1 56818U 23078BD  23247.70364059 -.00060252  00000-0 -50865-3 0  9994,2 56818  69.9972 142.1621 0002391 241.3078 118.7878 15.69654714 15441,6738.022,91.74,361.498,358.276,0.0
56818.0,STARLINK-6028,PAYLOAD,2023-09-04 21:28:41,15.69447098,0.000344,70.0008,141.628,275.1627,84.9176,-0.00085578,-0.00099915,0.0,0 STARLINK-6028,1 56818U 23078BD  23247.89492829 -.00099915  00000-0 -85578-3 0  9998,2 56818  70.0008 141.6280 0003440 275.1627  84.9176 15.69447098 15473,6738.616,91.752,362.799,358.163,0.0
56818.0,STARLINK-6028,PAYLOAD,2023-09-05 06:39:28,15.69336423,0.0005372,69.9986,140.5509,14.3648,345.7699,-0.00091729,-0.00106571,0.0,0 STARLINK-6028,1 56818U 23078BD  23248.27741106 -.00106571  00000-0 -91729-3 0  9998,2 56818  69.9986 140.5509 0005372  14.3648 345.7699 15.69336423 15533,6738.933,91.759,364.418,357.178,0.0
56818.0,STARLINK-6028,PAYLOAD,2023-09-05 20:00:01,15.67038688,0.000366,69.9986,138.9947,268.0313,348.1265,-0.0093227,-0.0090897,0.0,0 STARLINK-6028,1 56818U 23078BD  23248.83334491 -.00908970  00000-0 -93227-2 0  9992,2 56818  69.9986 138.9947 0003660 268.0313 348.1265 15.67038688 15621,6745.519,91.893,369.853,364.915,0.0
56818.0,STARLINK-6028,PAYLOAD,2023-09-06 12:00:00,15.65700376,0.0003583,69.9981,137.1302,269.5451,144.8032,-0.0093245,-0.00852789,0.0,0 STARLINK-6028,1 56818U 23078BD  23249.50001157 -.00852789  00000-0 -93245-2 0  9993,2 56818  69.9981 137.1302 0003583 269.5451 144.8032 15.65700376 15727,6749.362,91.972,373.646,368.809,0.0
56818.0,STARLINK-6028,PAYLOAD,2023-09-06 14:00:01,15.65537988,0.000342,69.9979,136.8973,267.2299,256.6658,-0.0092626,-0.0084261,0.0,0 STARLINK-6028,1 56818U 23078BD  23249.58334491 -.00842610  00000-0 -92626-2 0  9995,2 56818  69.9979 136.8973 0003420 267.2299 256.6658 15.65537988  5901,6749.829,91.981,374.002,369.386,0.0
56818.0,STARLINK-6028,PAYLOAD,2023-09-06 22:00:00,15.64925488,0.0003406,69.9983,135.9665,269.5188,332.0898,-0.010349,-0.00925011,0.0,0 STARLINK-6028,1 56818U 23078BD  23249.91667824 -.00925011  00000-0 -10349-1 0  9999,2 56818  69.9983 135.9665 0003406 269.5188 332.0898 15.64925488  5955,6751.59,92.017,375.755,371.155,0.0
56818.0,STARLINK-6028,PAYLOAD,2023-09-07 04:00:00,15.64423264,0.0003288,69.9981,135.2689,272.5207,296.8663,-0.010195,-0.00895861,0.0,0 STARLINK-6028,1 56818U 23078BD  23250.16667824 -.00895861  00000-0 -10195-1 0  9996,2 56818  69.9981 135.2689 0003288 272.5207 296.8663 15.64423264 15825,6753.035,92.047,377.12,372.68,0.0
56818.0,STARLINK-6028,PAYLOAD,2023-09-07 14:00:01,15.63579857,0.0003505,69.9984,134.108,267.1676,127.5424,-0.0099573,-0.00838299,0.0,0 STARLINK-6028,1 56818U 23078BD  23250.58334491 -.00838299  00000-0 -99573-2 0  9993,2 56818  69.9984 134.1080 0003505 267.1676 127.5424 15.63579857  5983,6755.463,92.096,379.696,374.96,0.0
56818.0,STARLINK-6028,PAYLOAD,2023-09-07 22:00:00,15.62967249,0.0003491,69.9983,133.1803,271.3573,198.7203,-0.011197,-0.00926033,0.0,0 STARLINK-6028,1 56818U 23078BD  23250.91667824 -.00926033  00000-0 -11197-1 0  9998,2 56818  69.9983 133.1803 0003491 271.3573 198.7203 15.62967249  6038,6757.228,92.132,381.452,376.734,0.0
56818.0,STARLINK-6028,PAYLOAD,2023-09-08 12:00:00,15.61779326,0.0003445,69.9981,131.5582,266.4395,243.6704,-0.010653,-0.00847956,0.0,0 STARLINK-6028,1 56818U 23078BD  23251.50001157 -.00847956  00000-0 -10653-1 0  9997,2 56818  69.9981 131.5582 0003445 266.4395 243.6704 15.61779326 16031,6760.654,92.203,384.848,380.19,0.0
56818.0,STARLINK-6028,PAYLOAD,2023-09-08 14:00:01,15.6162889,0.0003543,69.9981,131.3268,263.4164,355.0639,-0.01086,-0.00858482,0.0,0 STARLINK-6028,1 56818U 23078BD  23251.58334491 -.00858482  00000-0 -10860-1 0  9991,2 56818  69.9981 131.3268 0003543 263.4164 355.0639 15.61628890  6033,6761.088,92.211,385.349,380.558,0.0
56818.0,STARLINK-6028,PAYLOAD,2023-09-08 20:00:01,15.61189267,0.0003492,69.9986,130.6327,266.1212,317.1911,-0.012262,-0.00944326,0.0,0 STARLINK-6028,1 56818U 23078BD  23251.83334491 -.00944326  00000-0 -12262-1 0  9990,2 56818  69.9986 130.6327 0003492 266.1212 317.1911 15.61189267 16081,6762.358,92.237,386.584,381.861,0.0
56818.0,STARLINK-6028,PAYLOAD,2023-09-08 22:00:00,15.61009212,0.000363,69.9985,130.4014,267.9417,63.5619,-0.012032,-0.00922373,0.0,0 STARLINK-6028,1 56818U 23078BD  23251.91667824 -.00922373  00000-0 -12032-1 0  9991,2 56818  69.9985 130.4014 0003630 267.9417  63.5619 15.61009212  6022,6762.878,92.248,387.198,382.288,0.0
56818.0,STARLINK-6028,PAYLOAD,2023-09-09 12:00:00,15.59822859,0.0003578,69.9984,128.7844,264.6182,102.8114,-0.011501,-0.00848863,0.0,0 STARLINK-6028,1 56818U 23078BD  23252.50001157 -.00848863  00000-0 -11501-1 0  9999,2 56818  69.9984 128.7844 0003578 264.6182 102.8114 15.59822859 16199,6766.306,92.318,390.592,385.75,0.0
56818.0,STARLINK-6028,PAYLOAD,2023-09-09 14:00:01,15.59675218,0.0003422,69.9984,128.5537,265.0378,210.1746,-0.011787,-0.0086367,0.0,0 STARLINK-6028,1 56818U 23078BD  23252.58334491 -.00863670  00000-0 -11787-1 0  9996,2 56818  69.9984 128.5537 0003422 265.0378 210.1746 15.59675218  5979,6766.733,92.327,390.914,386.283,0.0
56818.0,STARLINK-6028,PAYLOAD,2023-09-09 20:00:01,15.59229075,0.0003542,69.9984,127.8619,267.7828,170.5034,-0.013161,-0.00940422,0.0,0 STARLINK-6028,1 56818U 23078BD  23252.83334491 -.00940422  00000-0 -13161-1 0  9993,2 56818  69.9984 127.8619 0003542 267.7828 170.5034 15.59229075 16241,6768.024,92.353,392.286,387.492,0.0
56818.0,STARLINK-6028,PAYLOAD,2023-09-10 12:00:00,15.57868443,0.0003393,69.9982,126.0187,262.871,314.8361,-0.012394,-0.00849234,0.0,0 STARLINK-6028,1 56818U 23078BD  23253.50001157 -.00849234  00000-0 -12394-1 0  9994,2 56818  69.9982 126.0187 0003393 262.8710 314.8361 15.57868443 16343,6771.964,92.434,396.127,391.531,0.0
56818.0,STARLINK-6028,PAYLOAD,2023-09-10 14:00:01,15.5772071,0.0003499,69.9982,125.7887,262.3924,62.5118,-0.012733,-0.00866105,0.0,0 STARLINK-6028,1 56818U 23078BD  23253.58334491 -.00866105  00000-0 -12733-1 0  9995,2 56818  69.9982 125.7887 0003499 262.3924  62.5118 15.57720710  6020,6772.392,92.443,396.627,391.888,0.0
56818.0,STARLINK-6028,PAYLOAD,2023-09-10 20:00:01,15.57269538,0.0003499,69.9986,125.0986,264.2489,22.0367,-0.014077,-0.00934569,0.0,0 STARLINK-6028,1 56818U 23078BD  23253.83335648 -.00934569  00000-0 -14077-1 0  9991,2 56818  69.9986 125.0986 0003499 264.2489  22.0367 15.57269538 16400,6773.7,92.47,397.935,393.195,0.0
56818.0,STARLINK-6028,PAYLOAD,2023-09-11 14:00:01,15.55768188,0.000332,69.9981,123.0316,261.3091,266.2454,-0.013794,-0.00871681,0.0,0 STARLINK-6028,1 56818U 23078BD  23254.58334491 -.00871681  00000-0 -13794-1 0  9999,2 56818  69.9981 123.0316 0003320 261.3091 266.2454 15.55768188  5972,6778.058,92.559,402.173,397.672,0.0
56818.0,STARLINK-6028,PAYLOAD,2023-09-12 04:00:00,15.54649567,0.0003292,69.9977,121.427,267.9321,284.5835,-0.015186,-0.00916386,0.0,0 STARLINK-6028,1 56818U 23078BD  23255.16667824 -.00916386  00000-0 -15186-1 0  9992,2 56818  69.9977 121.4270 0003292 267.9321 284.5835 15.54649567 16600,6781.308,92.625,405.406,400.941,0.0
